{"type": "FeatureCollection", "features": [{"type": "Feature", "properties": {"shapeName": "First of May District"}, "geometry": {"type": "MultiPolygon", "coordinates": [[[[74.576554, 42.8839474], [74.5759431, 42.8839412], [74.5759222, 42.883847], [74.5759184, 42.8838312], [74.5758862, 42.8835815], [74.5757973, 42.8824103], [74.575784, 42.8823029], [74.5757697, 42.8822162], [74.5756765, 42.8811716], [74.5756692, 42.8810887], [74.575482, 42.8798562], [74.5754746, 42.8797733], [74.574839, 42.8798053], [74.5737571, 42.8798597], [74.5721947, 42.8799383], [74.5720114, 42.8799475], [74.5718704, 42.8799543], [74.5714857, 42.879973], [74.5705274, 42.8800195], [74.5703513, 42.8800276], [74.5702498, 42.8800322], [74.569741, 42.8800577], [74.5687897, 42.880099], [74.5686866, 42.8801035], [74.56864, 42.8801056], [74.5681707, 42.8801261], [74.5679774, 42.8801396], [74.5678202, 42.8801506], [74.5675664, 42.8801683], [74.5675105, 42.8801723], [74.5672008, 42.8801939], [74.5666413, 42.8801933], [74.5660196, 42.8801282], [74.5655614, 42.8800559], [74.5654533, 42.8800388], [74.5649733, 42.8799295], [74.564564, 42.8797557], [74.5635188, 42.8793118], [74.5634774, 42.8792942], [74.5634445, 42.8792802], [74.5633666, 42.8792464], [74.5630855, 42.8791245], [74.5629378, 42.8790602], [74.5623065, 42.8787853], [74.562284, 42.8787755], [74.5622407, 42.8787566], [74.5620838, 42.8786884], [74.5619066, 42.8786167], [74.5617676, 42.878463], [74.561694, 42.8783942], [74.5616004, 42.878323], [74.5615207, 42.8782616], [74.5614389, 42.8782192], [74.5613318, 42.8781763], [74.5612223, 42.8781382], [74.5610966, 42.8781016], [74.5609531, 42.8780628], [74.5605238, 42.8779685], [74.5602864, 42.8779394], [74.5598131, 42.8778773], [74.5589512, 42.8777643], [74.5587771, 42.8777415], [74.5584372, 42.877697], [74.5582601, 42.8776738], [74.5580947, 42.8776528], [74.5572613, 42.8775467], [74.5566978, 42.8774765], [74.5540174, 42.8771015], [74.553938, 42.8770899], [74.5538247, 42.8770733], [74.5536764, 42.8770538], [74.5534181, 42.8770198], [74.5532513, 42.876999], [74.5524866, 42.8768976], [74.5519125, 42.8768096], [74.5514163, 42.8767443], [74.5513439, 42.8767344], [74.5507666, 42.8766552], [74.5495605, 42.876488], [74.5494066, 42.8764659], [74.5492446, 42.8764407], [74.5491148, 42.876419], [74.5486748, 42.8763529], [74.5479168, 42.876245], [74.547799, 42.8762281], [74.545366, 42.8758786], [74.5452496, 42.8758622], [74.5442538, 42.8757217], [74.5439641, 42.8756892], [74.5438713, 42.8756788], [74.5437093, 42.8756682], [74.5432646, 42.8756376], [74.543148, 42.8756277], [74.5426323, 42.8755951], [74.5418226, 42.8755439], [74.5415936, 42.8755294], [74.5406, 42.8754673], [74.540489, 42.8754604], [74.5403737, 42.8754525], [74.538577, 42.8753291], [74.5373715, 42.8752464], [74.5365954, 42.8751931], [74.5365044, 42.8751869], [74.5332596, 42.8749649], [74.5326931, 42.8749306], [74.5319602, 42.8748863], [74.5309324, 42.8748197], [74.5287941, 42.8746681], [74.5283888, 42.8746425], [74.5281281, 42.8746258], [74.5277865, 42.8746038], [74.5276223, 42.8745943], [74.5259152, 42.874477], [74.5235806, 42.8743311], [74.5233104, 42.8743142], [74.5231529, 42.8743062], [74.522548, 42.8742754], [74.522199, 42.8742552], [74.5217408, 42.8742217], [74.5195595, 42.8740624], [74.5187811, 42.8740149], [74.5183253, 42.8740049], [74.5178183, 42.8740232], [74.5165502, 42.8740671], [74.5159077, 42.8740881], [74.5147635, 42.8741255], [74.5135935, 42.8741632], [74.5125401, 42.8741897], [74.5123838, 42.8741911], [74.5124617, 42.874221], [74.5124839, 42.8742342], [74.5123795, 42.8765136], [74.5122235, 42.877826], [74.5126911, 42.8794292], [74.5117654, 42.8796027], [74.5111494, 42.8845725], [74.5107983, 42.8850048], [74.5107445, 42.8878376], [74.509931, 42.8928818], [74.512229, 42.8933279], [74.5141427, 42.8930527], [74.517201, 42.893341], [74.5169852, 42.8944618], [74.5187364, 42.8949075], [74.5265278, 42.8952077], [74.5388506, 42.8957077], [74.5399172, 42.8957554], [74.5462754, 42.8955466], [74.54699, 42.8955863], [74.5489244, 42.8963118], [74.54988, 42.8964953], [74.5505659, 42.8964925], [74.551214, 42.8964405], [74.5555297, 42.895861], [74.5563548, 42.895749], [74.557073, 42.8957273], [74.5572055, 42.8957233], [74.5604688, 42.8962411], [74.5606278, 42.8962663], [74.5615101, 42.8962291], [74.5631709, 42.8960484], [74.5632326, 42.8966497], [74.5630014, 42.8978664], [74.5631702, 42.8983982], [74.563406, 42.8989475], [74.5635563, 42.9006751], [74.5631388, 42.9014547], [74.5628353, 42.9020228], [74.5625649, 42.9031055], [74.56245, 42.9036394], [74.5620113, 42.9040207], [74.561747, 42.9042412], [74.5617344, 42.9044961], [74.5618057, 42.9047219], [74.5623837, 42.9066793], [74.5621987, 42.9070772], [74.5615899, 42.9082627], [74.5615921, 42.9085066], [74.5622108, 42.9094218], [74.5623417, 42.909762], [74.5628265, 42.9097857], [74.5638123, 42.9098339], [74.5646761, 42.9098762], [74.564748, 42.9098797], [74.565567, 42.9099198], [74.5662673, 42.9099652], [74.5669057, 42.9099493], [74.5679909, 42.9100784], [74.5694391, 42.9102136], [74.5702103, 42.9103301], [74.5725566, 42.9105167], [74.5734921, 42.9104271], [74.573511, 42.9104932], [74.5753428, 42.9106963], [74.5772793, 42.9107831], [74.5772836, 42.9108452], [74.57736, 42.9119422], [74.5774789, 42.9140932], [74.5775917, 42.9145069], [74.5777223, 42.9158105], [74.5779766, 42.9188678], [74.5781099, 42.9209019], [74.5790147, 42.9212196], [74.5770401, 42.9249318], [74.5769917, 42.9250914], [74.5745311, 42.9332082], [74.5798968, 42.9399452], [74.5794505, 42.9438714], [74.5803466, 42.9462478], [74.5803852, 42.9462868], [74.5820347, 42.9479536], [74.5831418, 42.9490723], [74.5835725, 42.9497679], [74.5885304, 42.9503546], [74.5914088, 42.9502566], [74.5979203, 42.9495277], [74.5993175, 42.9468084], [74.597686, 42.9463988], [74.5983202, 42.9446211], [74.59834, 42.9445655], [74.5986772, 42.9444378], [74.5988035, 42.9442135], [74.5988651, 42.9441041], [74.5989328, 42.9432835], [74.5991971, 42.9427976], [74.5997174, 42.9419564], [74.6000888, 42.9407728], [74.5995743, 42.9409633], [74.5979588, 42.9384797], [74.5972229, 42.9379576], [74.5947033, 42.9336118], [74.5975848, 42.9330577], [74.5988414, 42.9328795], [74.5989965, 42.9323921], [74.5990314, 42.9322823], [74.5996098, 42.9263462], [74.5978066, 42.9233027], [74.5963987, 42.9209323], [74.5962471, 42.9207545], [74.5960965, 42.920291], [74.5963412, 42.9169472], [74.5958133, 42.915948], [74.5956976, 42.9158244], [74.5954765, 42.9136432], [74.5955732, 42.9133094], [74.5961108, 42.9122454], [74.596312, 42.9122435], [74.5964595, 42.9118408], [74.5964807, 42.911783], [74.59773, 42.9118224], [74.5976678, 42.9117832], [74.59764, 42.9117422], [74.59764, 42.9117053], [74.5976391, 42.9102315], [74.5976395, 42.9101601], [74.5976401, 42.9100428], [74.5976393, 42.909722], [74.597637, 42.9093568], [74.5976381, 42.9089225], [74.5976346, 42.9086636], [74.5976366, 42.9084468], [74.5976425, 42.9077859], [74.5976287, 42.9070978], [74.597625, 42.9069466], [74.59762, 42.9067413], [74.597621, 42.9054319], [74.5976211, 42.905358], [74.5976185, 42.9049678], [74.5976183, 42.9047667], [74.5976181, 42.9045657], [74.5976158, 42.9042955], [74.5976232, 42.9033152], [74.5976253, 42.9032268], [74.5976232, 42.9031276], [74.5976143, 42.9016378], [74.5976146, 42.9015771], [74.5976195, 42.9007207], [74.597631, 42.9000607], [74.5976249, 42.8991223], [74.59762, 42.8988344], [74.59762, 42.8988167], [74.5976199, 42.898218], [74.5976141, 42.8971801], [74.5976141, 42.8971441], [74.5976124, 42.896742], [74.5976123, 42.8967109], [74.5975153, 42.8955521], [74.597455, 42.8948635], [74.5973902, 42.8939345], [74.5973237, 42.8929823], [74.5972917, 42.8925134], [74.5972678, 42.8922086], [74.5972588, 42.8921025], [74.5972527, 42.8919968], [74.5972098, 42.8913581], [74.5971509, 42.890644], [74.5971195, 42.8902424], [74.5970989, 42.8900492], [74.5970925, 42.8900008], [74.5970518, 42.8896315], [74.5969812, 42.8893223], [74.5969609, 42.8892034], [74.5968437, 42.8885938], [74.5968116, 42.8882075], [74.5967961, 42.888021], [74.5967645, 42.8876418], [74.5967533, 42.8874281], [74.5966917, 42.8865149], [74.5966768, 42.8862815], [74.5966163, 42.8854266], [74.5965458, 42.8839596], [74.5965397, 42.8838532], [74.5965347, 42.8836596], [74.5968577, 42.8835621], [74.5973096, 42.8836009], [74.5978374, 42.883646], [74.5984746, 42.8837005], [74.5991118, 42.8837549], [74.5992766, 42.8837675], [74.6000511, 42.8838293], [74.6005492, 42.8838691], [74.6016686, 42.8839584], [74.6017936, 42.8839697], [74.6019039, 42.8839784], [74.6022677, 42.8840121], [74.6035188, 42.8841281], [74.6050618, 42.8842468], [74.6066372, 42.8843599], [74.606858, 42.8843762], [74.6071715, 42.8843993], [74.6075167, 42.8844267], [74.6077078, 42.8844399], [74.608331, 42.8844804], [74.60957, 42.884561], [74.6099342, 42.8845835], [74.6100065, 42.8845886], [74.611387, 42.8846863], [74.6114413, 42.8846901], [74.6117575, 42.8847119], [74.6118286, 42.8846647], [74.6118135, 42.8811349], [74.6117147, 42.87839], [74.6116355, 42.8757505], [74.611549, 42.8740176], [74.6113118, 42.8692625], [74.6111547, 42.8672559], [74.6108605, 42.863499], [74.6105835, 42.8599622], [74.6098229, 42.8521675], [74.6088507, 42.8433963], [74.6088003, 42.8429412], [74.6088106, 42.8429224], [74.6085968, 42.8429318], [74.6077782, 42.8429676], [74.6064334, 42.8430264], [74.6058635, 42.8430477], [74.6055929, 42.8430528], [74.6053943, 42.8430603], [74.6053593, 42.8430611], [74.6043979, 42.8430835], [74.6042276, 42.8430878], [74.6039817, 42.8430986], [74.6028841, 42.8431245], [74.6026402, 42.8431338], [74.6018148, 42.8431507], [74.6003315, 42.8431896], [74.5999529, 42.8431992], [74.5994138, 42.8432134], [74.5992496, 42.8432188], [74.5988564, 42.8432244], [74.5987622, 42.843227], [74.5985897, 42.843232], [74.5977787, 42.8432539], [74.5967081, 42.8432834], [74.5951728, 42.8433224], [74.5946993, 42.8433363], [74.5932657, 42.8433757], [74.5928276, 42.8433879], [74.5920818, 42.8434078], [74.5919151, 42.8434135], [74.5917793, 42.8434156], [74.5913768, 42.843426], [74.5910998, 42.8434331], [74.5907452, 42.8434422], [74.5905017, 42.8434475], [74.5897984, 42.8434663], [74.5896727, 42.8434705], [74.5884692, 42.8435006], [74.5881818, 42.8435074], [74.5868894, 42.8435405], [74.5863022, 42.8435565], [74.5861279, 42.8435628], [74.58603, 42.8435671], [74.5860327, 42.8436156], [74.5860374, 42.8436966], [74.5861175, 42.8450939], [74.5862006, 42.8465428], [74.5862024, 42.8465746], [74.5862963, 42.8482115], [74.5863056, 42.8483734], [74.5863152, 42.8485406], [74.5863407, 42.8489853], [74.5863696, 42.8494887], [74.5863771, 42.8496191], [74.5864472, 42.8508424], [74.5864561, 42.8509982], [74.5864741, 42.8513105], [74.5864846, 42.851494], [74.5865329, 42.8523108], [74.5866043, 42.8535922], [74.5866101, 42.853694], [74.5866172, 42.8538066], [74.5866607, 42.8545643], [74.5866808, 42.854914], [74.5867032, 42.8553056], [74.5867316, 42.8558385], [74.5867391, 42.8559312], [74.5867545, 42.8561999], [74.5867512, 42.8564658], [74.5868171, 42.857291], [74.5868326, 42.8575608], [74.5868432, 42.8576787], [74.5868415, 42.8577168], [74.5868815, 42.8584136], [74.5869234, 42.8591435], [74.5869296, 42.8592522], [74.5869272, 42.8599485], [74.586962, 42.8606342], [74.5871412, 42.8629408], [74.5872226, 42.8631372], [74.5872463, 42.8634169], [74.5873368, 42.8648313], [74.5873829, 42.8657769], [74.5873354, 42.8660247], [74.5873445, 42.8670203], [74.5873912, 42.867596], [74.5874127, 42.8677126], [74.5874355, 42.8678165], [74.5874636, 42.8680631], [74.5875637, 42.8689411], [74.5875793, 42.8690828], [74.5876325, 42.8695952], [74.5876584, 42.8698534], [74.5876921, 42.8701475], [74.5877019, 42.8702613], [74.5877156, 42.8703756], [74.587815, 42.8714723], [74.5878256, 42.8715893], [74.5878929, 42.8722852], [74.587913, 42.8724928], [74.5879354, 42.8727252], [74.5879472, 42.8728214], [74.5879607, 42.8729228], [74.588051, 42.8738111], [74.5881184, 42.8744734], [74.5881232, 42.8744996], [74.5881909, 42.8751862], [74.5882038, 42.875304], [74.588213, 42.8754246], [74.5882603, 42.8760473], [74.5882733, 42.8762217], [74.5882993, 42.8765928], [74.5883856, 42.8773874], [74.5884536, 42.8781531], [74.5885313, 42.8789557], [74.588542, 42.8790814], [74.5886685, 42.8804306], [74.5886787, 42.8805796], [74.5887649, 42.8815347], [74.5887747, 42.8816527], [74.5887843, 42.8817652], [74.5888678, 42.8827474], [74.588881, 42.8829029], [74.5889565, 42.8837922], [74.5889698, 42.8839485], [74.5888077, 42.8839555], [74.5872859, 42.8840297], [74.5861525, 42.884089], [74.5857278, 42.8841112], [74.5855884, 42.8841189], [74.5854387, 42.8841271], [74.5845726, 42.8841747], [74.5840472, 42.8842035], [74.583889, 42.8842086], [74.5838278, 42.8842108], [74.5830449, 42.8842385], [74.5823071, 42.8842505], [74.5821537, 42.884253], [74.5820522, 42.8842538], [74.5819638, 42.8842533], [74.581205, 42.8842197], [74.5803309, 42.8841703], [74.5793926, 42.8841174], [74.578371, 42.8840653], [74.5782836, 42.8840609], [74.5779227, 42.8840424], [74.5770739, 42.8839832], [74.5767973, 42.8839653], [74.576694, 42.8839577], [74.576554, 42.8839474]]], [[[74.5067056, 42.989583], [74.5066464, 42.9905733], [74.5065319, 42.9919294], [74.508363, 42.9951939], [74.5092556, 42.9972362], [74.5097134, 42.9984415], [74.5093014, 42.9993956], [74.5104229, 43.0032791], [74.5096218, 43.0043336], [74.5075619, 43.0069112], [74.5074017, 43.0095892], [74.5082714, 43.0115808], [74.5085032, 43.0123389], [74.5097625, 43.0122998], [74.5154159, 43.0125007], [74.5154617, 43.011848], [74.5167663, 43.0097559], [74.518071, 43.0071784], [74.5188949, 43.0074797], [74.519284, 43.0068436], [74.52919, 43.0092049], [74.5308918, 43.0046639], [74.5305362, 43.0007337], [74.5299137, 42.9952459], [74.5252732, 42.9928761], [74.5202905, 42.9924691], [74.5199666, 42.9909716], [74.5199468, 42.9874261], [74.5202928, 42.9862486], [74.5201162, 42.984555], [74.5191334, 42.9835467], [74.5176425, 42.9830317], [74.5185453, 42.9840324], [74.5183435, 42.986236], [74.5151475, 42.986044], [74.5081535, 42.9855303], [74.5078173, 42.9896005], [74.5067056, 42.989583]]], [[[74.4548909, 42.8937537], [74.4596974, 42.8942232], [74.4656712, 42.8942065], [74.465511, 42.8888907], [74.4652908, 42.8860224], [74.465099, 42.8835242], [74.4624897, 42.8834404], [74.4619633, 42.8842957], [74.4607045, 42.8849833], [74.4602238, 42.8855199], [74.4590336, 42.8861069], [74.4582783, 42.8872305], [74.4575001, 42.887851], [74.4565846, 42.8883541], [74.4557148, 42.8890081], [74.4551426, 42.8898298], [74.4550968, 42.8904167], [74.4548909, 42.8937537]]]]}}, {"type": "Feature", "properties": {"shapeName": "Lenin District"}, "geometry": {"type": "MultiPolygon", "coordinates": [[[[74.5779227, 42.8840424], [74.5782836, 42.8840609], [74.578371, 42.8840653], [74.5793926, 42.8841174], [74.5803309, 42.8841703], [74.581205, 42.8842197], [74.5819638, 42.8842533], [74.5820522, 42.8842538], [74.5821537, 42.884253], [74.5823071, 42.8842505], [74.5830449, 42.8842385], [74.5838278, 42.8842108], [74.583889, 42.8842086], [74.5840472, 42.8842035], [74.5845726, 42.8841747], [74.5854387, 42.8841271], [74.5855884, 42.8841189], [74.5857278, 42.8841112], [74.5861525, 42.884089], [74.5872859, 42.8840297], [74.5888077, 42.8839555], [74.5889698, 42.8839485], [74.5889565, 42.8837922], [74.588881, 42.8829029], [74.5888678, 42.8827474], [74.5887843, 42.8817652], [74.5887747, 42.8816527], [74.5887649, 42.8815347], [74.5886787, 42.8805796], [74.5886685, 42.8804306], [74.588542, 42.8790814], [74.5885313, 42.8789557], [74.5884536, 42.8781531], [74.5883856, 42.8773874], [74.5882993, 42.8765928], [74.5882733, 42.8762217], [74.5882603, 42.8760473], [74.588213, 42.8754246], [74.5882038, 42.875304], [74.5881909, 42.8751862], [74.5881232, 42.8744996], [74.5881184, 42.8744734], [74.588051, 42.8738111], [74.5879607, 42.8729228], [74.5879472, 42.8728214], [74.5879354, 42.8727252], [74.587913, 42.8724928], [74.5878929, 42.8722852], [74.5878256, 42.8715893], [74.587815, 42.8714723], [74.5877156, 42.8703756], [74.5877019, 42.8702613], [74.5876921, 42.8701475], [74.5876584, 42.8698534], [74.5876325, 42.8695952], [74.5875793, 42.8690828], [74.5875637, 42.8689411], [74.5874636, 42.8680631], [74.5874355, 42.8678165], [74.5874127, 42.8677126], [74.5873912, 42.867596], [74.5873445, 42.8670203], [74.5873354, 42.8660247], [74.5872755, 42.8657793], [74.5872278, 42.8648352], [74.5871195, 42.8634211], [74.5870954, 42.8631448], [74.5871412, 42.8629408], [74.586962, 42.8606342], [74.5869272, 42.8599485], [74.5869296, 42.8592522], [74.5869234, 42.8591435], [74.5868815, 42.8584136], [74.5868415, 42.8577168], [74.5868432, 42.8576787], [74.5868326, 42.8575608], [74.5868171, 42.857291], [74.5867512, 42.8564658], [74.5867545, 42.8561999], [74.5867391, 42.8559312], [74.5867316, 42.8558385], [74.5867032, 42.8553056], [74.5866808, 42.854914], [74.5866607, 42.8545643], [74.5866172, 42.8538066], [74.5866101, 42.853694], [74.5866043, 42.8535922], [74.5865329, 42.8523108], [74.5864846, 42.851494], [74.5864741, 42.8513105], [74.5864561, 42.8509982], [74.5864472, 42.8508424], [74.5863771, 42.8496191], [74.5863696, 42.8494887], [74.5863407, 42.8489853], [74.5863152, 42.8485406], [74.5863056, 42.8483734], [74.5862963, 42.8482115], [74.5862024, 42.8465746], [74.5862006, 42.8465428], [74.5861175, 42.8450939], [74.5860374, 42.8436966], [74.5860327, 42.8436156], [74.58603, 42.8435671], [74.5860265, 42.8435064], [74.5860231, 42.8434482], [74.5860121, 42.843256], [74.5859773, 42.8426499], [74.5859395, 42.8419899], [74.5859172, 42.8416011], [74.585873, 42.8408303], [74.5858383, 42.8402246], [74.585828, 42.8400451], [74.5857958, 42.8394843], [74.5856926, 42.8376853], [74.585636, 42.8366971], [74.5856318, 42.8366242], [74.585539, 42.8350057], [74.5855128, 42.8345481], [74.585436, 42.8332605], [74.5853785, 42.832207], [74.5853735, 42.8321196], [74.5853371, 42.8314858], [74.585299, 42.8306364], [74.5852601, 42.8296244], [74.5852498, 42.8293546], [74.5852448, 42.8292893], [74.5852345, 42.8292225], [74.5851964, 42.8290732], [74.5851533, 42.8283241], [74.5849782, 42.8251863], [74.5849746, 42.8251349], [74.5849411, 42.8245297], [74.5847654, 42.8214727], [74.5847471, 42.8209807], [74.5844132, 42.8150177], [74.5842632, 42.8119255], [74.5840685, 42.8088717], [74.5840634, 42.8087924], [74.5840177, 42.8077247], [74.5840069, 42.807489], [74.5839724, 42.8062465], [74.5839759, 42.8061131], [74.5840488, 42.8043029], [74.5840773, 42.8035962], [74.5840792, 42.8035648], [74.5841029, 42.8031656], [74.5845527, 42.8031923], [74.5848444, 42.8032096], [74.5860783, 42.803296], [74.5866808, 42.8033357], [74.5872605, 42.8033739], [74.5874915, 42.803384], [74.5874792, 42.8032983], [74.5876155, 42.8028408], [74.5876593, 42.8026699], [74.5876388, 42.8024359], [74.5874797, 42.8021647], [74.5875138, 42.8017735], [74.5873647, 42.8013093], [74.5870268, 42.8008318], [74.5869613, 42.8002838], [74.5869495, 42.8001374], [74.5882403, 42.799907], [74.5881185, 42.7996838], [74.5880562, 42.7995377], [74.587967, 42.7993053], [74.5878279, 42.7988997], [74.587788, 42.7987664], [74.5877613, 42.7986613], [74.5877518, 42.7985614], [74.5877567, 42.7984278], [74.5877669, 42.7982981], [74.5878296, 42.7979667], [74.5878396, 42.7978743], [74.5878437, 42.7977666], [74.5878251, 42.7976604], [74.5877706, 42.7975124], [74.5876917, 42.7973329], [74.5875481, 42.7970229], [74.5874409, 42.7968623], [74.5872345, 42.7965482], [74.5869533, 42.7960749], [74.586604, 42.7955335], [74.5863736, 42.7951581], [74.5860918, 42.7947027], [74.5858754, 42.7943368], [74.5858343, 42.7942454], [74.5857995, 42.7941335], [74.5857818, 42.7939561], [74.5857869, 42.7936754], [74.5857869, 42.7933978], [74.5857931, 42.7931125], [74.5857788, 42.7929894], [74.5858143, 42.7922742], [74.5858351, 42.7919563], [74.5859551, 42.7914723], [74.586065, 42.7910516], [74.5860854, 42.7906113], [74.5860915, 42.7902291], [74.5861053, 42.7900854], [74.5862025, 42.7894995], [74.5862418, 42.7890943], [74.5862822, 42.7886185], [74.5863975, 42.7880961], [74.5864625, 42.7876543], [74.5865009, 42.7874094], [74.5867089, 42.7868381], [74.5867707, 42.7866939], [74.5867928, 42.7865652], [74.5867853, 42.7864262], [74.586757, 42.7863019], [74.5867623, 42.7861228], [74.5868363, 42.785828], [74.5869179, 42.7853886], [74.5870896, 42.7843177], [74.5871751, 42.7838718], [74.5872265, 42.783406], [74.5872398, 42.7833177], [74.5874121, 42.7823609], [74.5875695, 42.7814473], [74.5876262, 42.7811417], [74.5876252, 42.7809938], [74.5876006, 42.7804297], [74.5876008, 42.7798923], [74.5875857, 42.7786177], [74.5875994, 42.7784054], [74.5882161, 42.7767267], [74.5886631, 42.7756878], [74.588976, 42.7754645], [74.5892349, 42.775396], [74.5899964, 42.775383], [74.5901295, 42.7715195], [74.5906372, 42.7708943], [74.5901157, 42.7703349], [74.589831, 42.7689618], [74.5896785, 42.7685572], [74.5896819, 42.7682209], [74.5900944, 42.7676286], [74.5902514, 42.7674023], [74.5904384, 42.7672501], [74.5934939, 42.7656595], [74.59356, 42.7656154], [74.5937881, 42.765366], [74.5942198, 42.7649877], [74.5948227, 42.7645501], [74.5948976, 42.7644787], [74.5952933, 42.7639656], [74.5955842, 42.7631675], [74.5957516, 42.7628306], [74.5964435, 42.7618024], [74.5986097, 42.7606064], [74.599019, 42.7600533], [74.6004378, 42.7584988], [74.6009552, 42.7579824], [74.6009231, 42.7573588], [74.6008402, 42.7568988], [74.6024028, 42.7549751], [74.6026908, 42.7545789], [74.6024952, 42.7545115], [74.6023739, 42.7544694], [74.6022621, 42.7544014], [74.5981174, 42.7527287], [74.5978981, 42.752654], [74.5970867, 42.7524043], [74.5960403, 42.7522117], [74.5958564, 42.752146], [74.5957374, 42.7520908], [74.5956535, 42.7519822], [74.5955214, 42.7518448], [74.5953398, 42.7516958], [74.5952114, 42.7516141], [74.5950492, 42.7515641], [74.5947937, 42.7515204], [74.5943386, 42.7515124], [74.5939689, 42.7515612], [74.5925433, 42.7519498], [74.5902349, 42.7526391], [74.5871156, 42.7533471], [74.5862832, 42.7535709], [74.5857876, 42.7537869], [74.5842103, 42.7546237], [74.5836615, 42.7552624], [74.5832383, 42.755755], [74.5807153, 42.7574003], [74.5789164, 42.7581059], [74.5782826, 42.7585072], [74.5777322, 42.7589711], [74.5778106, 42.7596684], [74.5773477, 42.7600448], [74.5764131, 42.7599332], [74.5741832, 42.7587144], [74.5735264, 42.7583876], [74.5731084, 42.7580402], [74.5729705, 42.7580629], [74.5715247, 42.7589636], [74.5712694, 42.7591268], [74.568752, 42.7607372], [74.5692233, 42.7613232], [74.570435, 42.7622732], [74.5710095, 42.762457], [74.5720466, 42.7627302], [74.5724901, 42.7628756], [74.5737007, 42.7633116], [74.5739626, 42.7633675], [74.574617, 42.7635894], [74.5753186, 42.7637951], [74.575677, 42.7639464], [74.5762725, 42.7641409], [74.5768556, 42.7643587], [74.5769286, 42.7643641], [74.578083, 42.7647358], [74.5782944, 42.7648336], [74.5785478, 42.765124], [74.5782471, 42.765311], [74.5784602, 42.7654817], [74.5793113, 42.7668073], [74.5798051, 42.7681544], [74.58008, 42.7692489], [74.580235, 42.770025], [74.5804246, 42.7705558], [74.5805008, 42.771055], [74.5806261, 42.7728221], [74.5807938, 42.7740122], [74.5808288, 42.7747068], [74.5808198, 42.7761082], [74.5808952, 42.776635], [74.5809426, 42.7798166], [74.5809433, 42.780746], [74.5809211, 42.781073], [74.5808407, 42.7813457], [74.5795697, 42.7842768], [74.578899, 42.7858975], [74.5779444, 42.7882288], [74.5775615, 42.7890901], [74.5765188, 42.7910434], [74.5757047, 42.790838], [74.5752375, 42.7913527], [74.5748748, 42.7925901], [74.574359, 42.7929699], [74.5744128, 42.793269], [74.5748277, 42.793531], [74.5744525, 42.794466], [74.5732782, 42.7953727], [74.5728095, 42.7952729], [74.5722939, 42.7959672], [74.5718801, 42.7963236], [74.570851, 42.7977841], [74.5699772, 42.7990913], [74.569261, 42.7998881], [74.5690191, 42.8009532], [74.566367, 42.8027182], [74.5638159, 42.8037423], [74.5597626, 42.8037429], [74.5597194, 42.8053372], [74.555617, 42.8052471], [74.5555634, 42.8036625], [74.5450817, 42.8032179], [74.5453327, 42.8023406], [74.5453306, 42.8013553], [74.5455025, 42.8011641], [74.5457426, 42.8010607], [74.5459517, 42.8007823], [74.5459902, 42.8003247], [74.5451686, 42.8003098], [74.5454446, 42.7942257], [74.5403763, 42.7941722], [74.5404039, 42.799671], [74.5371119, 42.8004669], [74.5362627, 42.8004998], [74.5367639, 42.8055336], [74.5355699, 42.8053816], [74.5347443, 42.8033309], [74.5337872, 42.8033497], [74.5326671, 42.8012309], [74.5378794, 42.7872982], [74.5387316, 42.7836271], [74.5362361, 42.7841212], [74.5312694, 42.7846588], [74.5282939, 42.7851795], [74.5273784, 42.7850955], [74.5246547, 42.7855154], [74.5262569, 42.7825926], [74.5261424, 42.7824246], [74.524998, 42.7807951], [74.52438, 42.7802743], [74.5241969, 42.7790816], [74.5234187, 42.7790984], [74.522549, 42.7788296], [74.5232356, 42.7780904], [74.5242198, 42.777452], [74.5249522, 42.776696], [74.5253184, 42.7744952], [74.5251353, 42.7737391], [74.5248378, 42.7722943], [74.5244258, 42.7717902], [74.5209926, 42.7722943], [74.5200295, 42.7722023], [74.5191693, 42.7726035], [74.5189034, 42.7726966], [74.5185811, 42.7726396], [74.5178535, 42.7723867], [74.5156838, 42.7727766], [74.5154056, 42.7738968], [74.5133107, 42.7738023], [74.5134078, 42.7728412], [74.513673, 42.7718141], [74.5150054, 42.7690454], [74.5171221, 42.765146], [74.5109316, 42.7663397], [74.5114201, 42.7649273], [74.5114756, 42.7637514], [74.5118195, 42.7628353], [74.5117607, 42.7621858], [74.507408, 42.7631418], [74.5104394, 42.7765217], [74.4874614, 42.7789472], [74.4881183, 42.7823377], [74.4879004, 42.7837853], [74.487231, 42.7851659], [74.4879771, 42.7858928], [74.4879933, 42.7929105], [74.4869218, 42.7981398], [74.4861548, 42.8093539], [74.4870458, 42.8143131], [74.4872635, 42.8176619], [74.4866621, 42.8185254], [74.4933238, 42.8211491], [74.4922827, 42.8224458], [74.4804175, 42.8227163], [74.4794707, 42.823502], [74.4756462, 42.8273247], [74.4725378, 42.8306167], [74.4590767, 42.8300179], [74.458063, 42.8362966], [74.4609707, 42.8364923], [74.4632117, 42.847902], [74.463963, 42.8575727], [74.464461, 42.8577568], [74.4651359, 42.8581377], [74.4650824, 42.8587898], [74.4650706, 42.8596512], [74.4650508, 42.8603371], [74.4650412, 42.8610373], [74.4650415, 42.8617793], [74.4650638, 42.8625589], [74.4650694, 42.8632486], [74.4650946, 42.8639454], [74.4651218, 42.8645107], [74.4651641, 42.8653898], [74.4652116, 42.8661351], [74.4652435, 42.8666337], [74.4652522, 42.86677], [74.4652978, 42.8674848], [74.4653355, 42.8681695], [74.4653647, 42.868699], [74.4653994, 42.8688537], [74.4684895, 42.8691529], [74.4709092, 42.869335], [74.4716024, 42.8650417], [74.4755344, 42.8653892], [74.4754379, 42.8652137], [74.475858, 42.864548], [74.4769537, 42.8637109], [74.4773058, 42.8631977], [74.4773152, 42.86266], [74.4803243, 42.8629075], [74.4797003, 42.8652857], [74.4805469, 42.8653911], [74.486482, 42.866068], [74.4893409, 42.8663781], [74.4929985, 42.8665921], [74.4931113, 42.8656657], [74.493422, 42.8649839], [74.4939259, 42.8642921], [74.4947942, 42.8634171], [74.4965709, 42.8615502], [74.4931985, 42.8611815], [74.4933416, 42.8603556], [74.4981526, 42.860998], [74.4979363, 42.8616885], [74.4977043, 42.8628154], [74.4976628, 42.8635088], [74.497364, 42.8647561], [74.4973678, 42.8660702], [74.497219, 42.8663237], [74.4966307, 42.8669819], [74.4956756, 42.8670259], [74.4954145, 42.8681905], [74.496537, 42.8683178], [74.4982605, 42.8676474], [74.4996931, 42.8664469], [74.5006581, 42.8654948], [74.5007747, 42.8650687], [74.5008506, 42.8649766], [74.5010133, 42.8649908], [74.5010663, 42.8649979], [74.5015693, 42.865018], [74.5016609, 42.8649544], [74.5015023, 42.8659421], [74.5015023, 42.8669803], [74.5013738, 42.868255], [74.5013148, 42.8688404], [74.5013148, 42.869792], [74.5012932, 42.8699002], [74.5012461, 42.8699964], [74.5012067, 42.8701886], [74.5012139, 42.8703472], [74.5011269, 42.8711747], [74.5009615, 42.872748], [74.5007423, 42.8736909], [74.5007371, 42.8737774], [74.5006948, 42.8744783], [74.500702, 42.8747451], [74.5007252, 42.8749618], [74.5007364, 42.8750668], [74.5016157, 42.8749404], [74.5022291, 42.8748477], [74.5024289, 42.8748166], [74.5025352, 42.8748012], [74.5043715, 42.8745352], [74.5045117, 42.8745152], [74.5050104, 42.8744558], [74.5054764, 42.8744076], [74.5070417, 42.8743454], [74.5075543, 42.8743289], [74.5084605, 42.8742997], [74.5086354, 42.8742953], [74.508809, 42.8742892], [74.5122629, 42.8741944], [74.5123838, 42.8741911], [74.5125401, 42.8741897], [74.5135935, 42.8741632], [74.5147635, 42.8741255], [74.5159077, 42.8740881], [74.5165502, 42.8740671], [74.5178183, 42.8740232], [74.5183253, 42.8740049], [74.5187811, 42.8740149], [74.5195595, 42.8740624], [74.5217408, 42.8742217], [74.522199, 42.8742552], [74.522548, 42.8742754], [74.5231529, 42.8743062], [74.5233104, 42.8743142], [74.5235806, 42.8743311], [74.5259152, 42.874477], [74.5276223, 42.8745943], [74.5277865, 42.8746038], [74.5281281, 42.8746258], [74.5283888, 42.8746425], [74.5287941, 42.8746681], [74.5309324, 42.8748197], [74.5319602, 42.8748863], [74.5326931, 42.8749306], [74.5332596, 42.8749649], [74.5365044, 42.8751869], [74.5365954, 42.8751931], [74.5373715, 42.8752464], [74.538577, 42.8753291], [74.5403737, 42.8754525], [74.540489, 42.8754604], [74.5406, 42.8754673], [74.5415936, 42.8755294], [74.5418226, 42.8755439], [74.5426323, 42.8755951], [74.543148, 42.8756277], [74.5432646, 42.8756376], [74.5437093, 42.8756682], [74.5438713, 42.8756788], [74.5439641, 42.8756892], [74.5442538, 42.8757217], [74.5452496, 42.8758622], [74.545366, 42.8758786], [74.547799, 42.8762281], [74.5479168, 42.876245], [74.5486748, 42.8763529], [74.5491148, 42.876419], [74.5492446, 42.8764407], [74.5494066, 42.8764659], [74.5495605, 42.876488], [74.5507666, 42.8766552], [74.5513439, 42.8767344], [74.5514163, 42.8767443], [74.5519125, 42.8768096], [74.5524866, 42.8768976], [74.5532513, 42.876999], [74.5534181, 42.8770198], [74.5536764, 42.8770538], [74.5538247, 42.8770733], [74.553938, 42.8770899], [74.5540174, 42.8771015], [74.5566978, 42.8774765], [74.5572613, 42.8775467], [74.5580947, 42.8776528], [74.5582601, 42.8776738], [74.5584372, 42.877697], [74.5587771, 42.8777415], [74.5589512, 42.8777643], [74.5598131, 42.8778773], [74.5602864, 42.8779394], [74.5605238, 42.8779685], [74.5609531, 42.8780628], [74.5610966, 42.8781016], [74.5612223, 42.8781382], [74.5613318, 42.8781763], [74.5614389, 42.8782192], [74.5615207, 42.8782616], [74.5616004, 42.878323], [74.561694, 42.8783942], [74.5617676, 42.878463], [74.5619066, 42.8786167], [74.5620838, 42.8786884], [74.5622407, 42.8787566], [74.562284, 42.8787755], [74.5623065, 42.8787853], [74.5629378, 42.8790602], [74.5630855, 42.8791245], [74.5633666, 42.8792464], [74.5634445, 42.8792802], [74.5634774, 42.8792942], [74.5635188, 42.8793118], [74.564564, 42.8797557], [74.5649733, 42.8799295], [74.5654533, 42.8800388], [74.5655614, 42.8800559], [74.5660196, 42.8801282], [74.5666413, 42.8801933], [74.5672008, 42.8801939], [74.5675105, 42.8801723], [74.5675664, 42.8801683], [74.5678202, 42.8801506], [74.5679774, 42.8801396], [74.5681707, 42.8801261], [74.56864, 42.8801056], [74.5686866, 42.8801035], [74.5687897, 42.880099], [74.569741, 42.8800577], [74.5702498, 42.8800322], [74.5703513, 42.8800276], [74.5705274, 42.8800195], [74.5714857, 42.879973], [74.5718704, 42.8799543], [74.5720114, 42.8799475], [74.5721947, 42.8799383], [74.5737571, 42.8798597], [74.574839, 42.8798053], [74.5754746, 42.8797733], [74.575482, 42.8798562], [74.5756692, 42.8810887], [74.5756765, 42.8811716], [74.5757697, 42.8822162], [74.575784, 42.8823029], [74.5757973, 42.8824103], [74.5758862, 42.8835815], [74.5759184, 42.8838312], [74.5759222, 42.883847], [74.5759431, 42.8839412], [74.576554, 42.8839474], [74.576694, 42.8839577], [74.5767973, 42.8839653], [74.5770739, 42.8839832], [74.5779227, 42.8840424]]], [[[74.5908802, 42.716034], [74.5993181, 42.7155529], [74.5986851, 42.7168639], [74.5977008, 42.7193875], [74.5978297, 42.7200201], [74.5988202, 42.7208283], [74.6002293, 42.7218036], [74.5985158, 42.7234066], [74.5956646, 42.7228523], [74.5948402, 42.7229071], [74.5946046, 42.7230579], [74.59582, 42.7285933], [74.5958015, 42.7287848], [74.5956643, 42.7290187], [74.595387, 42.7289967], [74.5955282, 42.7287562], [74.5955462, 42.7285871], [74.5946292, 42.7243157], [74.5914982, 42.7246616], [74.5913527, 42.7241018], [74.591305, 42.7229168], [74.5904512, 42.7201707], [74.5896203, 42.7196807], [74.5894079, 42.7173392], [74.5895788, 42.7168289], [74.5908802, 42.716034]]]]}}, {"type": "Feature", "properties": {"shapeName": "October District"}, "geometry": {"type": "MultiPolygon", "coordinates": [[[[74.6108605, 42.863499], [74.6105835, 42.8599622], [74.6098229, 42.8521675], [74.6088507, 42.8433963], [74.6088003, 42.8429412], [74.6088106, 42.8429224], [74.6085968, 42.8429318], [74.6077782, 42.8429676], [74.6064334, 42.8430264], [74.6058635, 42.8430477], [74.6055929, 42.8430528], [74.6053943, 42.8430603], [74.6053593, 42.8430611], [74.6043979, 42.8430835], [74.6042276, 42.8430878], [74.6039817, 42.8430986], [74.6028841, 42.8431245], [74.6026402, 42.8431338], [74.6018148, 42.8431507], [74.6003315, 42.8431896], [74.5999529, 42.8431992], [74.5994138, 42.8432134], [74.5992496, 42.8432188], [74.5988564, 42.8432244], [74.5987622, 42.843227], [74.5985897, 42.843232], [74.5977787, 42.8432539], [74.5967081, 42.8432834], [74.5951728, 42.8433224], [74.5946993, 42.8433363], [74.5932657, 42.8433757], [74.5928276, 42.8433879], [74.5920818, 42.8434078], [74.5919151, 42.8434135], [74.5917793, 42.8434156], [74.5913768, 42.843426], [74.5910998, 42.8434331], [74.5907452, 42.8434422], [74.5905017, 42.8434475], [74.5897984, 42.8434663], [74.5896727, 42.8434705], [74.5884692, 42.8435006], [74.5881818, 42.8435074], [74.5868894, 42.8435405], [74.5863022, 42.8435565], [74.5861279, 42.8435628], [74.58603, 42.8435671], [74.5860265, 42.8435064], [74.5860231, 42.8434482], [74.5860121, 42.843256], [74.5859773, 42.8426499], [74.5859395, 42.8419899], [74.5859172, 42.8416011], [74.585873, 42.8408303], [74.5858383, 42.8402246], [74.585828, 42.8400451], [74.5857958, 42.8394843], [74.5856926, 42.8376853], [74.585636, 42.8366971], [74.5856318, 42.8366242], [74.585539, 42.8350057], [74.5855128, 42.8345481], [74.585436, 42.8332605], [74.5853785, 42.832207], [74.5853735, 42.8321196], [74.5853371, 42.8314858], [74.585299, 42.8306364], [74.5852601, 42.8296244], [74.5852498, 42.8293546], [74.5852448, 42.8292893], [74.5852345, 42.8292225], [74.5851964, 42.8290732], [74.5851533, 42.8283241], [74.5849782, 42.8251863], [74.5849746, 42.8251349], [74.5849411, 42.8245297], [74.5847654, 42.8214727], [74.5847471, 42.8209807], [74.5844132, 42.8150177], [74.5842632, 42.8119255], [74.5840685, 42.8088717], [74.5840634, 42.8087924], [74.5840177, 42.8077247], [74.5840069, 42.807489], [74.5839724, 42.8062465], [74.5839759, 42.8061131], [74.5840488, 42.8043029], [74.5840773, 42.8035962], [74.5840792, 42.8035648], [74.5841029, 42.8031656], [74.5845527, 42.8031923], [74.5848444, 42.8032096], [74.5860783, 42.803296], [74.5866808, 42.8033357], [74.5872605, 42.8033739], [74.5874915, 42.803384], [74.5874792, 42.8032983], [74.5876155, 42.8028408], [74.5876593, 42.8026699], [74.5876388, 42.8024359], [74.5874797, 42.8021647], [74.5875138, 42.8017735], [74.5873647, 42.8013093], [74.5870268, 42.8008318], [74.5869613, 42.8002838], [74.5869495, 42.8001374], [74.5882403, 42.799907], [74.5883934, 42.8001571], [74.5885702, 42.8004023], [74.5887887, 42.8006505], [74.589073, 42.8008958], [74.589183, 42.8010055], [74.5896109, 42.8013863], [74.5899828, 42.8016889], [74.5901017, 42.8018677], [74.5901813, 42.8020693], [74.59043, 42.8020989], [74.5906403, 42.8021144], [74.5909938, 42.8021475], [74.5917045, 42.8022612], [74.5923188, 42.8024945], [74.592897, 42.8026206], [74.5934679, 42.8027247], [74.5940659, 42.8027843], [74.5957933, 42.8029747], [74.5960559, 42.8029851], [74.5961146, 42.8029758], [74.5962977, 42.802951], [74.5966433, 42.8029042], [74.5973968, 42.8028488], [74.5980887, 42.8028483], [74.5985634, 42.8029081], [74.5988379, 42.8029167], [74.599157, 42.8029268], [74.5996458, 42.8030355], [74.6000943, 42.8032745], [74.6005762, 42.8034477], [74.601223, 42.8036028], [74.6014165, 42.8036274], [74.6016258, 42.8035933], [74.6020999, 42.8036195], [74.6024084, 42.8036948], [74.6029685, 42.8037216], [74.6058295, 42.8043765], [74.6089652, 42.8051658], [74.6103385, 42.805149], [74.6101325, 42.8047124], [74.6104072, 42.8039231], [74.610453, 42.8030331], [74.6122611, 42.8028484], [74.6136115, 42.8053169], [74.6128791, 42.8068114], [74.6147559, 42.8064252], [74.6177772, 42.8060893], [74.6188717, 42.8058073], [74.6229728, 42.8047795], [74.6240943, 42.8045108], [74.6249641, 42.8040407], [74.6267951, 42.8041414], [74.6282142, 42.8045612], [74.6289008, 42.804662], [74.64197, 42.8020759], [74.6422904, 42.8016057], [74.6445792, 42.801169], [74.6452079, 42.801029], [74.6473966, 42.7981129], [74.6490119, 42.7930403], [74.6523557, 42.792797], [74.6536235, 42.7929698], [74.6545993, 42.7928301], [74.6567403, 42.7920806], [74.6556348, 42.7882061], [74.6588251, 42.7871943], [74.6627787, 42.7847506], [74.6650643, 42.7855504], [74.66758, 42.7857271], [74.6690143, 42.7856149], [74.669866, 42.7859457], [74.6716302, 42.7882172], [74.6733909, 42.7911237], [74.6755243, 42.7918986], [74.6768541, 42.7921466], [74.6778605, 42.7952574], [74.6783882, 42.7963342], [74.6797584, 42.797477], [74.679484, 42.7984485], [74.6799737, 42.7997529], [74.6830901, 42.8024979], [74.6862601, 42.8075042], [74.6893309, 42.8106207], [74.6977886, 42.8245459], [74.699978, 42.8286277], [74.701277, 42.8330834], [74.7082692, 42.8306806], [74.7115054, 42.8360595], [74.7032469, 42.8392312], [74.7042543, 42.8455879], [74.7043204, 42.8457217], [74.704414, 42.8459002], [74.7048639, 42.8459964], [74.7049721, 42.846107], [74.7034232, 42.8550208], [74.7028408, 42.8583723], [74.7023138, 42.8592459], [74.7023198, 42.8637253], [74.7083222, 42.8632409], [74.7084668, 42.8664263], [74.7018269, 42.8667461], [74.6926853, 42.8671366], [74.6858646, 42.8674217], [74.6793873, 42.8675559], [74.6718571, 42.8679082], [74.6662723, 42.8680592], [74.6619007, 42.8679586], [74.656316, 42.868076], [74.6459934, 42.8678579], [74.6426746, 42.8678747], [74.6381656, 42.8673379], [74.629079, 42.866281], [74.6263553, 42.8655764], [74.6192142, 42.8638485], [74.616193, 42.8633955], [74.6142933, 42.8634123], [74.6108605, 42.863499]]]]}}, {"type": "Feature", "properties": {"shapeName": "Sverdlov District"}, "geometry": {"type": "MultiPolygon", "coordinates": [[[[74.7177168, 42.8658922], [74.7176303, 42.8670573], [74.6981823, 42.872335], [74.6981614, 42.8730875], [74.6981713, 42.8734442], [74.6987195, 42.8762249], [74.698767, 42.8764868], [74.6987779, 42.8766112], [74.6987761, 42.8767067], [74.698757, 42.8767809], [74.6980087, 42.8784545], [74.6984664, 42.8809221], [74.697835, 42.8810919], [74.6966256, 42.8776614], [74.6952671, 42.8779225], [74.695029, 42.8772702], [74.6945751, 42.8773715], [74.6947854, 42.8782379], [74.6940986, 42.8783663], [74.6942009, 42.8786773], [74.693643, 42.8787864], [74.6935243, 42.8784348], [74.691773, 42.8788458], [74.6918841, 42.879134], [74.6914211, 42.8792252], [74.6914711, 42.8793053], [74.6904874, 42.8795328], [74.6898946, 42.8796716], [74.6894658, 42.8797711], [74.6889273, 42.8798966], [74.6885616, 42.8799824], [74.6879701, 42.88012], [74.687376, 42.8802583], [74.6868624, 42.8803784], [74.6855246, 42.8806912], [74.6851223, 42.8807841], [74.6826446, 42.8812965], [74.6816287, 42.8815014], [74.6815643, 42.8814155], [74.6806041, 42.8816316], [74.6785254, 42.8820964], [74.6783457, 42.8812165], [74.6782176, 42.8806509], [74.6781564, 42.8803845], [74.6780795, 42.8800436], [74.6779809, 42.8796244], [74.6761101, 42.8797986], [74.6709636, 42.8802775], [74.6665433, 42.8807187], [74.6639027, 42.8809919], [74.6610307, 42.881157], [74.6593174, 42.8811256], [74.6566004, 42.8810317], [74.656597, 42.8812921], [74.6567794, 42.881298], [74.6567398, 42.8823127], [74.6562651, 42.8823451], [74.6560679, 42.8841129], [74.656072, 42.8847635], [74.6561202, 42.8857982], [74.6562088, 42.8868388], [74.6563549, 42.8885996], [74.6564703, 42.8886055], [74.6565212, 42.8887873], [74.656823, 42.8887834], [74.6575257, 42.8917969], [74.6544573, 42.8926223], [74.6520299, 42.8934329], [74.6520889, 42.8935842], [74.6522297, 42.8938278], [74.6525381, 42.8947809], [74.653552, 42.8952977], [74.6540992, 42.8958862], [74.654346, 42.8964707], [74.6544626, 42.8968008], [74.6547148, 42.8975033], [74.6548609, 42.8978609], [74.6550272, 42.8982647], [74.6548207, 42.8983374], [74.6533187, 42.8983865], [74.6511675, 42.8983679], [74.6508816, 42.8994178], [74.6508611, 42.9002242], [74.6506633, 42.900737], [74.6507049, 42.9013795], [74.6507223, 42.9016388], [74.6507062, 42.9023712], [74.6507283, 42.9028319], [74.6507813, 42.9033673], [74.6506817, 42.9039336], [74.6504883, 42.9043526], [74.6501644, 42.9048624], [74.6497654, 42.9054288], [74.649838, 42.9075075], [74.6498566, 42.9079965], [74.6500424, 42.9085446], [74.6503743, 42.9089081], [74.6506747, 42.9092553], [74.6466967, 42.9099219], [74.6466772, 42.9099974], [74.64625, 42.9101659], [74.6443708, 42.9101477], [74.6443346, 42.9071208], [74.6442112, 42.9030323], [74.6442112, 42.9018692], [74.6444446, 42.9004644], [74.6446152, 42.8994345], [74.644682, 42.8991699], [74.6448865, 42.8985167], [74.6453448, 42.8968158], [74.6458722, 42.894775], [74.6460472, 42.8941265], [74.6463553, 42.8936186], [74.646378, 42.8935858], [74.6464695, 42.8933259], [74.6452221, 42.8928537], [74.6447356, 42.89271], [74.6444379, 42.8926269], [74.6442488, 42.8926004], [74.6438106, 42.892593], [74.6435584, 42.8926117], [74.6431665, 42.8926945], [74.6428731, 42.8927809], [74.6420591, 42.8931143], [74.6409845, 42.8935602], [74.6389725, 42.8944418], [74.6384143, 42.8946047], [74.63755, 42.8947971], [74.6372009, 42.8948157], [74.6367624, 42.8948022], [74.6359564, 42.8947384], [74.6339494, 42.8945733], [74.6335025, 42.8945522], [74.6319012, 42.8948884], [74.63134, 42.8950059], [74.6312073, 42.8950253], [74.6312909, 42.8952666], [74.6313374, 42.8956039], [74.6311305, 42.8958675], [74.6309093, 42.8965201], [74.6308321, 42.8969225], [74.6310209, 42.8973123], [74.6311954, 42.8974632], [74.6312402, 42.8976175], [74.6311668, 42.8978656], [74.6311269, 42.8980109], [74.63127, 42.8985308], [74.6314684, 42.8986537], [74.6316556, 42.8989243], [74.6316678, 42.899135], [74.6318372, 42.8994946], [74.6322483, 42.8997959], [74.632214, 42.900016], [74.6319537, 42.900333], [74.6318936, 42.9009647], [74.6318649, 42.9013993], [74.6316398, 42.9016206], [74.6315349, 42.9018805], [74.6315693, 42.902051], [74.6315865, 42.9022228], [74.6315187, 42.9023926], [74.6313127, 42.9026252], [74.6305403, 42.9033231], [74.6302742, 42.9036249], [74.6302055, 42.9038575], [74.630154, 42.9040838], [74.6301796, 42.904255], [74.6301914, 42.9043812], [74.6301548, 42.9044517], [74.6301033, 42.9045394], [74.6299652, 42.9048446], [74.6299824, 42.9050646], [74.6303429, 42.9054733], [74.6304888, 42.905731], [74.6306604, 42.9059511], [74.63057, 42.9063891], [74.6305872, 42.9066082], [74.6305403, 42.9068689], [74.6305918, 42.9071518], [74.630669, 42.9075165], [74.6304544, 42.9080194], [74.6303257, 42.9082646], [74.6303514, 42.9085978], [74.630463, 42.9090567], [74.6304544, 42.9094465], [74.6303171, 42.9095848], [74.6301025, 42.9096476], [74.6299395, 42.9096853], [74.6297678, 42.9098299], [74.6291841, 42.9105214], [74.6287893, 42.9109929], [74.6284718, 42.9113638], [74.6284203, 42.911785], [74.6282486, 42.912445], [74.627931, 42.9130108], [74.6273045, 42.913828], [74.6266607, 42.9144377], [74.6259397, 42.9149658], [74.6252188, 42.9156698], [74.6249355, 42.9162229], [74.6249355, 42.9166629], [74.6251673, 42.9169961], [74.6255964, 42.9173292], [74.6256651, 42.9174927], [74.6256136, 42.9178509], [74.6256222, 42.9181212], [74.6257423, 42.9189383], [74.6257767, 42.9197115], [74.6258968, 42.920076], [74.6258968, 42.9205914], [74.6261028, 42.9210565], [74.6264118, 42.9217919], [74.626738, 42.9226467], [74.6267844, 42.9228111], [74.6267798, 42.9230317], [74.6267231, 42.9231336], [74.626677, 42.923272], [74.6267194, 42.9234927], [74.6267821, 42.9236063], [74.6269325, 42.9237976], [74.627047, 42.924174], [74.6271434, 42.9245176], [74.6272736, 42.9249064], [74.6272872, 42.9251672], [74.6272332, 42.9253638], [74.6271849, 42.9255772], [74.6270977, 42.9258049], [74.6270427, 42.9259396], [74.6270115, 42.9260215], [74.6270232, 42.9262667], [74.6269366, 42.9264636], [74.6269007, 42.9267623], [74.6268662, 42.926983], [74.6268299, 42.9272124], [74.626792, 42.9273559], [74.626622, 42.9277706], [74.6266006, 42.9282151], [74.6264302, 42.9286842], [74.6264584, 42.9287213], [74.6268191, 42.9287571], [74.6269296, 42.9288801], [74.6291151, 42.9289172], [74.6297079, 42.9286074], [74.6313742, 42.9277285], [74.6320172, 42.9274786], [74.6321936, 42.9274418], [74.6329061, 42.9290736], [74.6335709, 42.9310637], [74.636752, 42.9359879], [74.6372589, 42.9370856], [74.6391955, 42.9395008], [74.6400458, 42.9405945], [74.6408094, 42.9422856], [74.6408954, 42.9425751], [74.638405, 42.9429319], [74.6365977, 42.9431421], [74.6339384, 42.9436065], [74.6329004, 42.9439363], [74.6317282, 42.9443447], [74.6246965, 42.9467872], [74.620968, 42.9480409], [74.6185761, 42.9484305], [74.6170815, 42.9487036], [74.617718, 42.9501687], [74.6197283, 42.9504788], [74.6223676, 42.9529917], [74.6228826, 42.9544679], [74.6229412, 42.9545576], [74.6242988, 42.9566352], [74.6251529, 42.958302], [74.627453, 42.9627909], [74.6316373, 42.9668264], [74.6320738, 42.9696553], [74.6335941, 42.9708033], [74.6305481, 42.9720382], [74.6266919, 42.9728246], [74.6240856, 42.9727946], [74.6210163, 42.9647593], [74.6209728, 42.9646595], [74.6187627, 42.9651149], [74.6148788, 42.9677527], [74.6115253, 42.9647897], [74.6089701, 42.9630505], [74.608766, 42.9629115], [74.60872, 42.9628802], [74.6083217, 42.9624225], [74.6080259, 42.9617388], [74.6081908, 42.9609301], [74.6073484, 42.9582288], [74.6026704, 42.9534129], [74.6089047, 42.9493699], [74.608417, 42.9490655], [74.6081754, 42.9475711], [74.6087095, 42.9418972], [74.6084809, 42.9398412], [74.608516, 42.9384097], [74.6090471, 42.937002], [74.6097158, 42.9359027], [74.6097621, 42.9358266], [74.6096056, 42.9355864], [74.6096421, 42.9349046], [74.6096466, 42.9348211], [74.6102895, 42.9327743], [74.6102363, 42.9323951], [74.6097707, 42.9318201], [74.6097093, 42.9317642], [74.6093041, 42.9313951], [74.610374, 42.930511], [74.6107124, 42.9293882], [74.6088178, 42.9290503], [74.6087273, 42.9290342], [74.6085196, 42.9288413], [74.6095072, 42.9259014], [74.6098876, 42.9255253], [74.6098362, 42.9243419], [74.6098337, 42.9242846], [74.6100161, 42.9239436], [74.6090141, 42.9217128], [74.608661, 42.9209692], [74.6084846, 42.9200514], [74.6083616, 42.9193209], [74.608323, 42.9189253], [74.6079936, 42.9189438], [74.6054479, 42.9190896], [74.6054305, 42.9185842], [74.605811, 42.9135063], [74.6054691, 42.9133003], [74.6045839, 42.9124996], [74.6038997, 42.9120361], [74.6037866, 42.9117443], [74.6024168, 42.9117786], [74.6023346, 42.9117552], [74.600384, 42.911805], [74.6001777, 42.911895], [74.5979678, 42.9119125], [74.5978124, 42.9118452], [74.5977639, 42.9118353], [74.59773, 42.9118224], [74.5976678, 42.9117832], [74.59764, 42.9117422], [74.59764, 42.9117053], [74.5976391, 42.9102315], [74.5976395, 42.9101601], [74.5976401, 42.9100428], [74.5976393, 42.909722], [74.597637, 42.9093568], [74.5976381, 42.9089225], [74.5976346, 42.9086636], [74.5976366, 42.9084468], [74.5976425, 42.9077859], [74.5976287, 42.9070978], [74.597625, 42.9069466], [74.59762, 42.9067413], [74.597621, 42.9054319], [74.5976211, 42.905358], [74.5976185, 42.9049678], [74.5976183, 42.9047667], [74.5976181, 42.9045657], [74.5976158, 42.9042955], [74.5976232, 42.9033152], [74.5976253, 42.9032268], [74.5976232, 42.9031276], [74.5976143, 42.9016378], [74.5976146, 42.9015771], [74.5976195, 42.9007207], [74.597631, 42.9000607], [74.5976249, 42.8991223], [74.59762, 42.8988344], [74.59762, 42.8988167], [74.5976199, 42.898218], [74.5976141, 42.8971801], [74.5976141, 42.8971441], [74.5976124, 42.896742], [74.5976123, 42.8967109], [74.5975153, 42.8955521], [74.597455, 42.8948635], [74.5973902, 42.8939345], [74.5973237, 42.8929823], [74.5972917, 42.8925134], [74.5972678, 42.8922086], [74.5972588, 42.8921025], [74.5972527, 42.8919968], [74.5972098, 42.8913581], [74.5971509, 42.890644], [74.5971195, 42.8902424], [74.5970989, 42.8900492], [74.5970925, 42.8900008], [74.5970518, 42.8896315], [74.5969812, 42.8893223], [74.5969609, 42.8892034], [74.5968437, 42.8885938], [74.5968116, 42.8882075], [74.5967961, 42.888021], [74.5967645, 42.8876418], [74.5967533, 42.8874281], [74.5966917, 42.8865149], [74.5966768, 42.8862815], [74.5966163, 42.8854266], [74.5965458, 42.8839596], [74.5965397, 42.8838532], [74.5965347, 42.8836596], [74.5968367, 42.8837761], [74.5969103, 42.8837829], [74.5981972, 42.8839011], [74.5990896, 42.8839802], [74.5994023, 42.8840108], [74.6012413, 42.8841623], [74.6016434, 42.8841954], [74.6017712, 42.8842055], [74.6018736, 42.8842137], [74.6022516, 42.8842438], [74.6036096, 42.8843521], [74.6051066, 42.8844706], [74.6057124, 42.884514], [74.606213, 42.8845541], [74.6066139, 42.8845862], [74.6068408, 42.8846032], [74.6070189, 42.8846165], [74.6072109, 42.8846309], [74.6075253, 42.8846544], [74.6076768, 42.8846658], [74.609538, 42.8848121], [74.6096924, 42.8848242], [74.6105911, 42.8848863], [74.6114258, 42.8849394], [74.6117537, 42.8849646], [74.6117575, 42.8847119], [74.6118286, 42.8846647], [74.6118135, 42.8811349], [74.6117147, 42.87839], [74.6116355, 42.8757505], [74.611549, 42.8740176], [74.6113118, 42.8692625], [74.6111547, 42.8672559], [74.6108605, 42.863499], [74.6142933, 42.8634123], [74.616193, 42.8633955], [74.6192142, 42.8638485], [74.6263553, 42.8655764], [74.629079, 42.866281], [74.6381656, 42.8673379], [74.6426746, 42.8678747], [74.6459934, 42.8678579], [74.656316, 42.868076], [74.6619007, 42.8679586], [74.6662723, 42.8680592], [74.6718571, 42.8679082], [74.6793873, 42.8675559], [74.6858646, 42.8674217], [74.6926853, 42.8671366], [74.7018269, 42.8667461], [74.7084668, 42.8664263], [74.7131865, 42.8661538], [74.7177168, 42.8658922]]]]}}]}